NORAD_CAT_ID,OBJECT_NAME,OBJECT_TYPE,EPOCH,MEAN_MOTION,ECCENTRICITY,INCLINATION,RA_OF_ASC_NODE,ARG_OF_PERICENTER,MEAN_ANOMALY,BSTAR,MEAN_MOTION_DOT,MEAN_MOTION_DDOT,TLE_LINE0,TLE_LINE1,TLE_LINE2,SEMIMAJOR_AXIS,PERIOD,APOGEE,PERIGEE,DECAYED
49157.0,STARLINK-3051,PAYLOAD,2022-06-26 05:35:11,14.96720628,0.0002855,69.9975,84.0787,262.2096,97.8738,0.00015422,1.674e-05,0.0,0 STARLINK-3051,1 49157U 21082AD  22177.23277064  .00001674  00000-0  15422-3 0  9994,2 49157  69.9975  84.0787 0002855 262.2096  97.8738 14.96720628 44997,6955.174,96.21,579.025,575.053,0.0
49157.0,STARLINK-3051,PAYLOAD,2022-06-26 21:37:34,14.96716719,0.0002745,69.9977,82.3975,262.3762,97.7085,0.00012828,1.377e-05,0.0,0 STARLINK-3051,1 49157U 21082AD  22177.90109358  .00001377  00000-0  12828-3 0  9995,2 49157  69.9977  82.3975 0002745 262.3762  97.7085 14.96716719 45090,6955.186,96.211,578.961,575.1419999999998,0.0
49157.0,STARLINK-3051,PAYLOAD,2022-06-27 02:26:17,14.96712649,0.0002786,69.9979,81.8934,262.4947,97.5895,4.9613e-05,4.76e-06,0.0,0 STARLINK-3051,1 49157U 21082AD  22178.10159428  .00000476  00000-0  49613-4 0  9993,2 49157  69.9979  81.8934 0002786 262.4947  97.5895 14.96712649 45121,6955.199000000001,96.211,579.002,575.126,0.0
49157.0,STARLINK-3051,PAYLOAD,2022-06-27 10:27:29,14.9671475,0.0002792,69.9978,81.0528,262.4267,97.6574,4.8923e-05,4.68e-06,0.0,0 STARLINK-3051,1 49157U 21082AD  22178.43575313  .00000468  00000-0  48923-4 0  9998,2 49157  69.9978  81.0528 0002792 262.4267  97.6574 14.96714750 45178,6955.191999999999,96.211,578.999,575.116,0.0
49157.0,STARLINK-3051,PAYLOAD,2022-06-27 21:41:08,14.96720028,0.0002866,69.9977,79.8757,261.6756,98.4077,-4.5094e-06,-1.43e-06,0.0,0 STARLINK-3051,1 49157U 21082AD  22178.90357379 -.00000143  00000-0 -45094-5 0  9999,2 49157  69.9977  79.8757 0002866 261.6756  98.4077 14.96720028 45242,6955.176,96.21,579.034,575.048,0.0
49157.0,STARLINK-3051,PAYLOAD,2022-06-28 02:29:51,14.96721947,0.0002831,69.9978,79.3715,261.717,98.3668,1.834e-05,1.18e-06,0.0,0 STARLINK-3051,1 49157U 21082AD  22179.10406710  .00000118  00000-0  18340-4 0  9999,2 49157  69.9978  79.3715 0002831 261.7170  98.3668 14.96721947 45274,6955.17,96.21,579.004,575.066,0.0
49157.0,STARLINK-3051,PAYLOAD,2022-06-28 10:31:02,14.96723812,0.0002893,69.9977,78.5316,260.3174,99.7657,3.8223e-05,3.46e-06,0.0,0 STARLINK-3051,1 49157U 21082AD  22179.43822344  .00000346  00000-0  38223-4 0  9995,2 49157  69.9977  78.5316 0002893 260.3174  99.7657 14.96723812 45320,6955.1640000000025,96.21,579.0409999999998,575.0169999999998,0.0
49157.0,STARLINK-3051,PAYLOAD,2022-06-28 21:44:43,14.96709061,0.0002691,69.9981,77.3543,257.6732,102.4125,2.6689e-05,2.14e-06,0.0,0 STARLINK-3051,1 49157U 21082AD  22179.90605575  .00000214  00000-0  26689-4 0  9999,2 49157  69.9981  77.3543 0002691 257.6732 102.4125 14.96709061 45398,6955.21,96.211,578.947,575.203,0.0
49157.0,STARLINK-3051,PAYLOAD,2022-06-29 02:33:26,14.96706133,0.0002874,69.9979,76.8505,260.368,99.7154,-2.8425e-05,-4.17e-06,0.0,0 STARLINK-3051,1 49157U 21082AD  22180.10655580 -.00000417  00000-0 -28425-4 0  9991,2 49157  69.9979  76.8505 0002874 260.3680  99.7154 14.96706133 45424,6955.219,96.211,579.0830000000002,575.085,0.0
49157.0,STARLINK-3051,PAYLOAD,2022-06-29 10:34:37,14.96708606,0.0002877,69.9979,76.0098,260.9303,99.153,-2.175e-05,-3.4e-06,0.0,0 STARLINK-3051,1 49157U 21082AD  22180.44071540 -.00000340  00000-0 -21750-4 0  9995,2 49157  69.9979  76.0098 0002877 260.9303  99.1530 14.96708606 45478,6955.2109999999975,96.211,579.077,575.075,0.0
49157.0,STARLINK-3051,PAYLOAD,2022-06-29 21:48:17,14.96710266,0.0002878999999999,69.9979,74.8331,260.9276,99.1557,-2.333e-05,-3.59e-06,0.0,0 STARLINK-3051,1 49157U 21082AD  22180.90853961 -.00000359  00000-0 -23330-4 0  9997,2 49157  69.9979  74.8331 0002879 260.9276  99.1557 14.96710266 45547,6955.206,96.211,579.0740000000002,575.069,0.0
49157.0,STARLINK-3051,PAYLOAD,2022-06-30 02:37:00,14.96714048,0.0002874,69.9979,74.3289,261.4467,98.6365,-2.8011e-05,-4.12e-06,0.0,0 STARLINK-3051,1 49157U 21082AD  22181.10903346 -.00000412  00000-0 -28011-4 0  9994,2 49157  69.9979  74.3289 0002874 261.4467  98.6365 14.96714048 45573,6955.195,96.211,579.059,575.061,0.0
49157.0,STARLINK-3051,PAYLOAD,2022-06-30 20:15:37,14.9671238,0.0002883,69.9979,72.4796,261.1554,98.9278,3.9929e-05,3.65e-06,0.0,0 STARLINK-3051,1 49157U 21082AD  22181.84418541  .00000365  00000-0  39929-4 0  9998,2 49157  69.9979  72.4796 0002883 261.1554  98.9278 14.96712380 45684,6955.2,96.211,579.07,575.06,0.0
49157.0,STARLINK-3051,PAYLOAD,2022-07-01 02:40:34,14.96711065,0.0002812,69.998,71.8074,261.3381,98.7459,0.00011868,1.267e-05,0.0,0 STARLINK-3051,1 49157U 21082AD  22182.11151302  .00001267  00000-0  11868-3 0  9991,2 49157  69.9980  71.8074 0002812 261.3381  98.7459 14.96711065 45723,6955.204000000002,96.211,579.025,575.113,0.0
49157.0,STARLINK-3051,PAYLOAD,2022-07-01 20:19:11,14.96715993,0.00028,69.998,69.9583,261.4627,98.6214,9.279e-05,9.71e-06,0.0,0 STARLINK-3051,1 49157U 21082AD  22182.84666313  .00000971  00000-0  92790-4 0  9999,2 49157  69.9980  69.9583 0002800 261.4627  98.6214 14.96715993 45831,6955.189,96.211,579.001,575.106,0.0
49157.0,STARLINK-3051,PAYLOAD,2022-07-02 01:07:54,14.96718865,0.0002781,69.998,69.4539,261.4899,98.5944,0.00011279,1.2e-05,0.0,0 STARLINK-3051,1 49157U 21082AD  22183.04715655  .00001200  00000-0  11279-3 0  9994,2 49157  69.9980  69.4539 0002781 261.4899  98.5944 14.96718865 45869,6955.18,96.21,578.979,575.11,0.0
49157.0,STARLINK-3051,PAYLOAD,2022-07-02 09:09:05,14.96721221,0.000277,69.998,68.6134,261.3754,98.709,0.00011753,1.254e-05,0.0,0 STARLINK-3051,1 49157U 21082AD  22183.38131398  .00001254  00000-0  11753-3 0  9993,2 49157  69.9980  68.6134 0002770 261.3754  98.7090 14.96721221 45918,6955.172,96.21,578.964,575.111,0.0
49157.0,STARLINK-3051,PAYLOAD,2022-07-03 09:12:39,14.96721425,0.0002199,69.9993,66.0913,260.9736,99.1174,-0.00011183,-1.371e-05,0.0,0 STARLINK-3051,1 49157U 21082AD  22184.38379515 -.00001371  00000-0 -11183-3 0  9998,2 49157  69.9993  66.0913 0002199 260.9736  99.1174 14.96721425 46060,6955.172,96.21,578.566,575.507,0.0
49157.0,STARLINK-3051,PAYLOAD,2022-07-03 22:02:33,14.96720458,0.0002814,69.9978,64.747,260.358,99.726,-1.071e-05,-2.14e-06,0.0,0 STARLINK-3051,1 49157U 21082AD  22184.91844630 -.00000214  00000-0 -10710-4 0  9993,2 49157  69.9978  64.7470 0002814 260.3580  99.7260 14.96720458 46147,6955.175,96.21,578.997,575.0830000000002,0.0
49157.0,STARLINK-3051,PAYLOAD,2022-07-04 02:51:17,14.9671033,0.0002683,69.9979,64.243,262.4101,97.6752,-0.00012176,-1.485e-05,0.0,0 STARLINK-3051,1 49157U 21082AD  22185.11895122 -.00001485  00000-0 -12176-3 0  9996,2 49157  69.9979  64.2430 0002683 262.4101  97.6752 14.96710330 46179,6955.206,96.211,578.937,575.205,0.0
49157.0,STARLINK-3051,PAYLOAD,2022-07-04 22:06:08,14.96710098,0.000269,69.9981,62.226000000000006,257.7095,102.3762,-0.00012439,-1.515e-05,0.0,0 STARLINK-3051,1 49157U 21082AD  22185.92093684 -.00001515  00000-0 -12439-3 0  9994,2 49157  69.9981  62.2260 0002690 257.7095 102.3762 14.96710098 46297,6955.206999999999,96.211,578.943,575.201,0.0
49157.0,STARLINK-3051,PAYLOAD,2022-07-05 01:18:43,14.96637625,0.0002441,69.9979,61.8881,265.3321,94.7558,-0.0008842,-0.00010177,0.0,0 STARLINK-3051,1 49157U 21082AD  22186.05466710 -.00010177  00000-0 -88420-3 0  9990,2 49157  69.9979  61.8881 0002441 265.3321  94.7558 14.96637625 46313,6955.431,96.216,578.994,575.599,0.0
49157.0,STARLINK-3051,PAYLOAD,2022-07-05 09:19:53,14.96662756,0.0002946,69.9977,61.0492,251.0912,108.9927,-0.00047429,-5.509e-05,0.0,0 STARLINK-3051,1 49157U 21082AD  22186.38881107 -.00005509  00000-0 -47429-3 0  9994,2 49157  69.9977  61.0492 0002946 251.0912 108.9927 14.96662756 46365,6955.353,96.214,579.268,575.169,0.0
49157.0,STARLINK-3051,PAYLOAD,2022-07-05 17:21:01,14.96706648,0.0003066,69.9978,60.2087,255.3566,104.7253,4.3102e-05,4.02e-06,0.0,0 STARLINK-3051,1 49157U 21082AD  22186.72293608  .00000402  00000-0  43102-4 0  9995,2 49157  69.9978  60.2087 0003066 255.3566 104.7253 14.96706648 46414,6955.218000000003,96.211,579.215,574.95,0.0
49157.0,STARLINK-3051,PAYLOAD,2022-07-05 20:33:30,14.96707205,0.0003056,69.9979,59.8726,255.8598,104.222,5.1521e-05,4.98e-06,0.0,0 STARLINK-3051,1 49157U 21082AD  22186.85660107  .00000498  00000-0  51521-4 0  9990,2 49157  69.9979  59.8726 0003056 255.8598 104.2220 14.96707205 46439,6955.215999999999,96.211,579.206,574.955,0.0
49157.0,STARLINK-3051,PAYLOAD,2022-07-06 09:23:24,14.96705694,0.0003051,69.9979,58.5276,254.6383,105.4438,0.0001807,1.977e-05,0.0,0 STARLINK-3051,1 49157U 21082AD  22187.39125872  .00001977  00000-0  18070-3 0  9999,2 49157  69.9979  58.5276 0003051 254.6383 105.4438 14.96705694 46512,6955.22,96.211,579.2080000000002,574.9630000000002,0.0
49157.0,STARLINK-3051,PAYLOAD,2022-07-06 22:13:19,14.96710477,0.0003115,69.9978,57.1827,254.7618,105.3196,0.00018611,2.039e-05,0.0,0 STARLINK-3051,1 49157U 21082AD  22187.92591560  .00002039  00000-0  18611-3 0  9990,2 49157  69.9978  57.1827 0003115 254.7618 105.3196 14.96710477 46594,6955.206,96.211,579.237,574.904,0.0
49157.0,STARLINK-3051,PAYLOAD,2022-07-07 01:25:47,14.96711966,0.0003091,69.9979,56.8464,254.4766,105.6051,0.00019953,2.193e-05,0.0,0 STARLINK-3051,1 49157U 21082AD  22188.05957911  .00002193  00000-0  19953-3 0  9992,2 49157  69.9979  56.8464 0003091 254.4766 105.6051 14.96711966 46612,6955.201,96.211,579.216,574.9159999999998,0.0
49157.0,STARLINK-3051,PAYLOAD,2022-07-07 20:40:38,14.9672514,0.000317,69.9979,54.8292,251.5059,108.5755,0.0001445,1.563e-05,0.0,0 STARLINK-3051,1 49157U 21082AD  22188.86156193  .00001563  00000-0  14450-3 0  9991,2 49157  69.9979  54.8292 0003170 251.5059 108.5755 14.96725140 46735,6955.16,96.21,579.23,574.82,0.0
